[{"OBJECT_NAME":"STARLINK-30345","OBJECT_ID":"2023-129D","EPOCH":"2026-03-09T19:35:58.089984","MEAN_MOTION":15.26736368,"ECCENTRICITY":7.154e-5,"INCLINATION":42.997,"RA_OF_ASC_NODE":117.0531,"ARG_OF_PERICENTER":35.7791,"MEAN_ANOMALY":324.3109,"EPHEMERIS_TYPE":0,"CLASSIFICATION_TYPE":"U","NORAD_CAT_ID":57701,"ELEMENT_SET_NO":999,"REV_AT_EPOCH":14056,"BSTAR":6.1280296e-5,"MEAN_MOTION_DOT":1.384e-5,"MEAN_MOTION_DDOT":0},{"OBJECT_NAME":"LIZZIESAT-2 (LS-2)","OBJECT_ID":"2024-247G","EPOCH":"2026-03-09T11:47:37.199328","MEAN_MOTION":15.28222796,"ECCENTRICITY":0.00040927,"INCLINATION":44.9909,"RA_OF_ASC_NODE":117.0823,"ARG_OF_PERICENTER":327.5136,"MEAN_ANOMALY":32.5495,"EPHEMERIS_TYPE":0,"CLASSIFICATION_TYPE":"U","NORAD_CAT_ID":62383,"ELEMENT_SET_NO":999,"REV_AT_EPOCH":6771,"BSTAR":0.00034516624,"MEAN_MOTION_DOT":9.388e-5,"MEAN_MOTION_DDOT":0}]
